IRIDIUM 155             
1 43573U 18061E   24193.40252896  .00000394  00000+0  13361-3 0  9995
2 43573  86.3983 351.6343 0002406  92.1395 268.0076 14.34219619312192
IRIDIUM 154             
1 43574U 18061F   24193.52303711  .00000094  00000+0  26375-4 0  9999
2 43574  86.3988 351.6824 0001927  95.6406 264.5010 14.34217644312263
IRIDIUM 163             
1 43575U 18061G   24193.43424121  .00000025  00000+0  20048-5 0  9995
2 43575  86.3983 351.6572 0002160  93.1863 266.9580 14.34217787312221
IRIDIUM 156             
1 43576U 18061H   24193.47863946  .00000180  00000+0  57327-4 0  9993
2 43576  86.3985 351.6453 0002262  88.8773 271.2682 14.34217462312228
IRIDIUM 164             
1 43577U 18061J   24193.52938009  .00000049  00000+0  10613-4 0  9994
2 43577  86.3987 351.6533 0001998  84.7116 275.4307 14.34217925312270
IRIDIUM 159             
1 43578U 18061K   24193.49766647  .00000051  00000+0  10994-4 0  9993
2 43578  86.3984 351.6180 0001914  92.1233 268.0182 14.34217958312238
IRIDIUM 180             
1 43922U 19002A   24193.35762624  .00000039  00000+0  68280-5 0  9996
2 43922  86.3966 288.5563 0002193  97.8223 262.3222 14.34217999287828
IRIDIUM 176             
1 43923U 19002B   24193.31438589  .00001471  00000+0  22932-3 0  9996
2 43923  86.6095 288.5945 0002145  93.3659 266.7803 14.72251829295396
IRIDIUM 168             
1 43924U 19002C   24193.35128444  .00000366  00000+0  12368-3 0  9991
2 43924  86.3969 288.6165 0002181  93.4846 266.6599 14.34218797287801
IRIDIUM 173             
1 43925U 19002D   24193.33859849  .00000144  00000+0  44294-4 0  9998
2 43925  86.3966 288.5395 0002107  94.7069 265.4367 14.34218085287789
IRIDIUM 169             
1 43926U 19002E   24193.53942868  .00000225  00000+0  67117-4 0  9994
2 43926  86.4241 320.0836 0003693 123.3049 236.8504 14.38619552288770
IRIDIUM 172             
1 43927U 19002F   24193.33223739  .00000184  00000+0  58672-4 0  9992
2 43927  86.3964 288.5479 0002177  95.5614 264.5830 14.34236604287797
IRIDIUM 175             
1 43928U 19002G   24193.58061191  .00001245  00000+0  19354-3 0  9994
2 43928  86.1497 260.2449 0002311 100.9552 259.1925 14.72243779295420
IRIDIUM 171             
1 43929U 19002H   24193.31322871  .00000382  00000+0  12949-3 0  9995
2 43929  86.3979 288.7845 0002211  89.4755 270.6694 14.34217404287783
IRIDIUM 170             
1 43930U 19002J   24193.32057107  .00001474  00000+0  22979-3 0  9992
2 43930  86.6094 288.5969 0002343  94.7081 265.4403 14.72249317295406
IRIDIUM 167             
1 43931U 19002K   24193.30688531  .00000146  00000+0  44974-4 0  9997
2 43931  86.3967 288.5748 0002306  93.5854 266.5605 14.34217124287789
IRIDIUM 181             
1 56726U 23068S   24193.43720583  .00000098  00000+0  23187-4 0  9997
2 56726  86.8652 343.4308 0002431  89.8879 270.2601 14.43578716 60636
IRIDIUM 177             
1 56727U 23068T   24193.42665110  .00002152  00000+0  27965-3 0  9991
2 56727  86.1983 303.8513 0002342  84.8224 275.3264 14.80234038 61960
IRIDIUM 174             
1 56728U 23068U   24193.42121055  .00002157  00000+0  28029-3 0  9994
2 56728  86.1990 303.9595 0002358  93.9337 266.2154 14.80235254 61961
IRIDIUM 178             
1 56729U 23068V   24193.41579589  .00002009  00000+0  26096-3 0  9991
2 56729  86.5799 322.5754 0002320 101.3771 258.7711 14.80232577 61962
IRIDIUM 179             
1 56730U 23068W   24193.41036842  .00001930  00000+0  25058-3 0  9992
2 56730  86.6807 327.0170 0002427  97.0987 263.0511 14.80227928 61966
